1 45131U 20008A   23166.33148614 -.00000552  00000-0 -16414-2 0  9994
2 45131  87.9143 272.6547 0002846  89.3245 270.8208 13.09380617162398
1 45131U 20008A   23166.71356276 -.00000673  00000-0 -19925-2 0  9995
2 45131  87.9143 272.5800 0002835  88.9408 271.2043 13.09380159162442
1 45131U 20008A   23167.32488514 -.00000668  00000-0 -19791-2 0  9999
2 45131  87.9143 272.4604 0002817  88.5312 271.6138 13.09379523162524
1 45131U 20008A   23167.32488514 -.00000668  00000-0 -19791-2 0  9999
2 45131  87.9143 272.4604 0002817  88.5312 271.6138 13.09379523163288
1 45131U 20008A   23167.70696202 -.00000691  00000-0 -20443-2 0  9998
2 45131  87.9142 272.3854 0002818  88.2708 271.8742 13.09379047162575
1 45131U 20008A   23168.54753089 -.00001087  00000-0 -31946-2 0  9998
2 45131  87.9141 272.2210 0002887  87.0874 273.0583 13.09380307162686
1 45131U 20008A   23168.70036302 -.00000792  00000-0 -23389-2 0  9992
2 45131  87.9141 272.1910 0002928  88.8598 271.2864 13.09377731162702
1 45131U 20008A   23168.70036302 -.00000792  00000-0 -23389-2 0  9992
2 45131  87.9141 272.1910 0002928  88.8598 271.2864 13.09377731163466
1 45131U 20008A   23169.54093375 -.00000695  00000-0 -20566-2 0  9994
2 45131  87.9139 272.0265 0002791  86.9287 273.2159 13.09376589162814
1 45131U 20008A   23169.99942745 -.00000692  00000-0 -20486-2 0  9995
2 45131  87.9139 271.9366 0002822  86.4509 273.6940 13.09376274163635
1 45131U 20008A   23170.53433706 -.00000143  00000-0 -45159-3 0  9995
2 45131  87.9139 271.8319 0002729  86.6034 273.5405 13.09373634162948
1 45131U 20008A   23171.52774066 -.00000446  00000-0 -13343-2 0  9997
2 45131  87.9138 271.6376 0002770  85.4560 274.6883 13.09374972163078
1 45131U 20008A   23171.68057285 -.00000505  00000-0 -15042-2 0  9995
2 45131  87.9138 271.6076 0002764  85.4979 274.6463 13.09374305163852
1 45131U 20008A   23171.83340418 -.00000500  00000-0 -14895-2 0  9995
2 45131  87.9136 271.5778 0002762  85.3867 274.7575 13.09374600163113
1 45131U 20008A   23172.52114564 -.00000252  00000-0 -76825-3 0  9999
2 45131  87.9136 271.4431 0002754  84.7136 275.4305 13.09374437163208
1 45131U 20008A   23172.75039382 -.00000339  00000-0 -10215-2 0  9994
2 45131  87.9136 271.3982 0002732  84.5730 275.5708 13.09373847163990
1 45131U 20008A   23172.82680964 -.00000315  00000-0 -95126-3 0  9999
2 45131  87.9136 271.3832 0002726  84.4808 275.6629 13.09373753163249
1 45131U 20008A   23173.97304693 -.00000061  00000-0 -21478-3 0  9995
2 45131  87.9136 271.1588 0002697  83.4578 276.6855 13.09373785164153
1 45131U 20008A   23175.27211555  .00000286  00000-0  79520-3 0  9992
2 45131  87.9136 270.9045 0002691  82.3562 277.7870 13.09374713164323
1 45131U 20008A   23176.64760106  .00000402  00000-0  11305-2 0  9991
2 45131  87.9136 270.6351 0002658  81.3344 278.8084 13.09374604164508
1 45131U 20008A   23177.79383685  .00000600  00000-0  17061-2 0  9996
2 45131  87.9137 270.4107 0002633  80.1445 279.9978 13.09375615164651
1 45131U 20008A   23179.01648632  .00000787  00000-0  22510-2 0  9990
2 45131  87.9139 270.1713 0002588  79.2666 280.8752 13.09377246164817
1 45131U 20008A   23180.16271841  .00000788  00000-0  22543-2 0  9999
2 45131  87.9141 269.9470 0002554  78.1006 282.0407 13.09379133164969
1 45131U 20008A   23182.76083817  .00000570  00000-0  16198-2 0  9999
2 45131  87.9147 269.4386 0002478  76.1778 283.9624 13.09382202165306
1 45131U 20008A   23183.98347947  .00000377  00000-0  10576-2 0  9990
2 45131  87.9149 269.1994 0002431  75.1219 285.0177 13.09383605165469
1 45131U 20008A   23185.28253481  .00000144  00000-0  38251-3 0  9997
2 45131  87.9150 268.9453 0002360  73.8615 286.2772 13.09384225165636
1 45131U 20008A   23186.50517435 -.00000042  00000-0 -15968-3 0  9994
2 45131  87.9149 268.7061 0002320  73.2491 286.8890 13.09384435165796
1 45131U 20008A   23188.18630435 -.00000346  00000-0 -10417-2 0  9996
2 45131  87.9148 268.3772 0002231  72.1282 288.0088 13.09383992166013
1 45131U 20008A   23189.25611552 -.00000517  00000-0 -15394-2 0  9993
2 45131  87.9143 268.1678 0002192  71.7052 288.4313 13.09383081166156
1 45131U 20008A   23190.47875885 -.00000708  00000-0 -20944-2 0  9999
2 45131  87.9140 267.9284 0002140  71.2446 288.8912 13.09381252166313
1 45131U 20008A   23191.62498832 -.00000783  00000-0 -23133-2 0  9996
2 45131  87.9136 267.7039 0002078  70.5834 289.5517 13.09379882166468
1 45131U 20008A   23192.92405006 -.00000721  00000-0 -21319-2 0  9997
2 45131  87.9131 267.4496 0002029  70.0684 290.0661 13.09378762166633
1 45131U 20008A   23194.68160841 -.00000491  00000-0 -14637-2 0  9996
2 45131  87.9130 267.1055 0001949  69.3131 290.8205 13.09376628166864
1 45131U 20008A   23195.75142780 -.00000293  00000-0 -88818-3 0  9990
2 45131  87.9127 266.8961 0001918  68.8533 291.2799 13.09376042167008
1 45131U 20008A   23197.12691063  .00000025  00000-0  37442-4 0  9995
2 45131  87.9127 266.6266 0001873  67.1591 292.9733 13.09375813167180
1 45131U 20008A   23198.42597813  .00000212  00000-0  58033-3 0  9993
2 45131  87.9126 266.3725 0001801  68.6764 291.4555 13.09376080167357
1 45131U 20008A   23199.57221378  .00000458  00000-0  12951-2 0  9990
2 45131  87.9126 266.1479 0001766  68.9332 291.1984 13.09376315167506
1 45131U 20008A   23200.71844819  .00000583  00000-0  16574-2 0  9994
2 45131  87.9126 265.9236 0001725  68.5225 291.6086 13.09377185167656
1 45131U 20008A   23202.62883414  .00000782  00000-0  22361-2 0  9992
2 45131  87.9126 265.5494 0001643  65.9927 294.1372 13.09380002167903
1 45131U 20008A   23204.92129011  .00000684  00000-0  19503-2 0  9998
2 45131  87.9129 265.1005 0001552  66.8261 293.3029 13.09383686167440
1 45131U 20008A   23206.14393025  .00000562  00000-0  15966-2 0  9996
2 45131  87.9127 264.8605 0001505  68.2404 291.8882 13.09385306167602
1 45131U 20008A   23207.13732469  .00000370  00000-0  10376-2 0  9992
2 45131  87.9131 264.6663 0001451  65.5659 294.5619 13.09386081167734
1 45131U 20008A   23207.21374021  .00000290  00000-0  80758-3 0  9990
2 45131  87.9130 264.6515 0001435  65.9676 294.1601 13.09385533167743
1 45131U 20008A   23207.21374021  .00000290  00000-0  80758-3 0  9990
2 45131  87.9130 264.6515 0001435  65.9676 294.1601 13.09385533168508
1 45131U 20008A   23207.97788871  .00000196  00000-0  53363-3 0  9992
2 45131  87.9130 264.5021 0001393  67.8560 292.2714 13.09386395167842
1 45131U 20008A   23208.89486777 -.00000054  00000-0 -19266-3 0  9993
2 45131  87.9128 264.3225 0001367  69.2749 290.8525 13.09385978167962
1 45131U 20008A   23209.12411227 -.00000063  00000-0 -21980-3 0  9994
2 45131  87.9128 264.2776 0001354  69.6237 290.5035 13.09386143168750
1 45131U 20008A   23209.35335679 -.00000086  00000-0 -28713-3 0  9991
2 45131  87.9128 264.2327 0001336  69.4515 290.6755 13.09386104168026
1 45131U 20008A   23210.34675040 -.00000297  00000-0 -89931-3 0  9994
2 45131  87.9125 264.0381 0001285  69.9859 290.1406 13.09385880168916
1 45131U 20008A   23211.64580479 -.00000540  00000-0 -16050-2 0  9991
2 45131  87.9125 263.7843 0001245  71.2412 288.8850 13.09384759169082
1 45131U 20008A   23213.09768999 -.00000589  00000-0 -17484-2 0  9992
2 45131  87.9120 263.4994 0001176  73.8067 286.3189 13.09383781169271
1 45131U 20008A   23214.39674812 -.00000690  00000-0 -20431-2 0  9995
2 45131  87.9116 263.2450 0001143  76.2094 283.9160 13.09382092169447
1 45131U 20008A   23215.61939335 -.00000689  00000-0 -20402-2 0  9991
2 45131  87.9114 263.0057 0001110  79.1793 280.9459 13.09380258169606
1 45131U 20008A   23216.68920950 -.00000691  00000-0 -20439-2 0  9995
2 45131  87.9110 262.7960 0001083  81.1341 278.9908 13.09378855169743
1 45131U 20008A   23218.14110329 -.00000343  00000-0 -10324-2 0  9995
2 45131  87.9106 262.5112 0001047  81.8830 278.2416 13.09378519169930
1 45131U 20008A   23219.21092181 -.00000146  00000-0 -46161-3 0  9999
2 45131  87.9103 262.3018 0001019  86.1678 273.9565 13.09377644170079
1 45131U 20008A   23220.35715627  .00000078  00000-0  19074-3 0  9998
2 45131  87.9102 262.0771 0000999  88.8468 271.2773 13.09377440170226
1 45131U 20008A   23221.57980622  .00000307  00000-0  85591-3 0  9994
2 45131  87.9102 261.8375 0001007  91.7180 268.4062 13.09377943170382
1 45131U 20008A   23223.03170218  .00000551  00000-0  15659-2 0  9997
2 45131  87.9101 261.5528 0001000  93.9973 266.1268 13.09378704170575
1 45131U 20008A   23224.10151816  .00000746  00000-0  21306-2 0  9991
2 45131  87.9102 261.3430 0001000  96.8802 263.2438 13.09380486170712
1 45131U 20008A   23225.62982542  .00000756  00000-0  21596-2 0  9999
2 45131  87.9104 261.0433 0000989 100.4651 259.6587 13.09382164170914
1 45131U 20008A   23227.08171364  .00000759  00000-0  21692-2 0  9993
2 45131  87.9105 260.7586 0000994 103.8944 256.2294 13.09383904171101
1 45131U 20008A   23228.15152404  .00000644  00000-0  18352-2 0  9998
2 45131  87.9105 260.5489 0000985 105.4630 254.6606 13.09385381171246
1 45131U 20008A   23229.45057812  .00000445  00000-0  12579-2 0  9993
2 45131  87.9106 260.2944 0001011 107.5438 252.5799 13.09386206171416
1 45131U 20008A   23231.05528875  .00000174  00000-0  46987-3 0  9994
2 45131  87.9105 259.9798 0001054 110.7171 249.4069 13.09387808171621
1 45131U 20008A   23232.12509608 -.00000060  00000-0 -21151-3 0  9998
2 45131  87.9104 259.7700 0001095 113.1734 246.9508 13.09387512171765
1 45131U 20008A   23233.50056229 -.00000345  00000-0 -10405-2 0  9992
2 45131  87.9101 259.5004 0001118 116.2653 243.8588 13.09387574171949
1 45131U 20008A   23235.10527520 -.00000514  00000-0 -15305-2 0  9999
2 45131  87.9098 259.1858 0001176 118.6025 241.5221 13.09385808172151
1 45131U 20008A   23236.48074611 -.00000776  00000-0 -22933-2 0  9994
2 45131  87.9097 258.9163 0001248 120.7789 239.3460 13.09384139171578
1 45131U 20008A   23236.48074611 -.00000776  00000-0 -22933-2 0  9994
2 45131  87.9097 258.9163 0001248 120.7789 239.3460 13.09384139172333
1 45131U 20008A   23237.55055786 -.00000745  00000-0 -22022-2 0  9990
2 45131  87.9094 258.7063 0001280 122.1888 237.9363 13.09383042171718
